[{"OBJECT_NAME":"SJ-11-05","OBJECT_ID":"2013-035A","EPOCH":"2026-03-09T22:35:58.811424","MEAN_MOTION":14.64778924,"ECCENTRICITY":0.0009824,"INCLINATION":98.2837,"RA_OF_ASC_NODE":253.0653,"ARG_OF_PERICENTER":179.2606,"MEAN_ANOMALY":180.8612,"EPHEMERIS_TYPE":0,"CLASSIFICATION_TYPE":"U","NORAD_CAT_ID":39202,"ELEMENT_SET_NO":999,"REV_AT_EPOCH":67470,"BSTAR":0.00019288768,"MEAN_MOTION_DOT":9.8e-6,"MEAN_MOTION_DDOT":0},{"OBJECT_NAME":"SAC-C","OBJECT_ID":"2000-075B","EPOCH":"2026-03-09T23:10:30.355968","MEAN_MOTION":14.62807175,"ECCENTRICITY":0.00011312,"INCLINATION":98.5013,"RA_OF_ASC_NODE":77.8691,"ARG_OF_PERICENTER":76.6033,"MEAN_ANOMALY":283.5294,"EPHEMERIS_TYPE":0,"CLASSIFICATION_TYPE":"U","NORAD_CAT_ID":26620,"ELEMENT_SET_NO":999,"REV_AT_EPOCH":34631,"BSTAR":0.00017770838,"MEAN_MOTION_DOT":8.56e-6,"MEAN_MOTION_DDOT":0}]
